STARLINK-36950          
1 67992U 26039G   26084.91904593  .00056424  00000+0  95923-3 0  9994
2 67992  43.0028 318.3177 0002819 268.5077  91.5460 15.50619100  4172
STARLINK-36975          
1 67993U 26039H   26084.91202280  .00085708  00000+0  14464-2 0  9996
2 67993  42.9979 318.2609 0001815 234.6735 125.3955 15.50664793  4178
STARLINK-36993          
1 67994U 26039J   26085.25002315 -.01885137  00000+0 -46814-1 0  9992
2 67994  42.9994 315.6419 0001808 253.6528  96.2962 15.42839080  5538
STARLINK-36968          
1 67995U 26039K   26084.92653918  .00085912  00000+0  14508-2 0  9993
2 67995  42.9996 318.3761 0002851 272.5165  87.5369 15.50643888  4178
STARLINK-36979          
1 67996U 26039L   26085.25002315 -.01881583  00000+0 -48740-1 0  9995
2 67996  43.0002 315.5474 0001886 262.0000 126.1050 15.41584594  5534
STARLINK-36994          
1 67997U 26039M   26084.94306009  .00060096  00000+0  10211-2 0  9996
2 67997  42.9962 317.6175 0001833 248.4468 111.6197 15.50613442  4183
STARLINK-36988          
1 67998U 26039N   26084.93881264  .00059908  00000+0  10180-2 0  9992
2 67998  42.9972 317.5839 0001397 275.1316  84.9384 15.50610729  4180
STARLINK-36926          
1 67999U 26039P   26084.94139189  .00084123  00000+0  14239-2 0  9992
2 67999  42.9992 317.6039 0001496 256.4207 103.6487 15.50588499  4188
STARLINK-36931          
1 68000U 26039Q   26085.04982019  .00058750  00000+0  99938-3 0  9993
2 68000  43.0000 316.6894 0002035 274.8338  85.2290 15.50588778  4201
STARLINK-36903          
1 68001U 26039R   26085.25002315 -.01875489  00000+0 -56119-1 0  9990
2 68001  43.0001 315.9753 0001011 275.8989 297.7743 15.37237172  5539
STARLINK-36898          
1 68002U 26039S   26085.25002315 -.02181335  00000+0 -68105-1 0  9990
2 68002  42.9998 315.7919 0001603 255.4026  31.2171 15.35887417  5535
STARLINK-36862          
1 68003U 26039T   26085.25002315 -.02223007  00000+0 -72731-1 0  9994
2 68003  43.0000 315.9597 0001841 255.1571 323.5564 15.34503209  5538
