CCSDS_OMM_VERS = 2.0
CREATION_DATE  = 
ORIGINATOR     = 

OBJECT_NAME    = STARLINK-36950
OBJECT_ID      = 2026-039G
CENTER_NAME    = EARTH
REF_FRAME      = TEME
TIME_SYSTEM    = UTC
MEAN_ELEMENT_THEORY = SGP/SGP4

EPOCH          = 2026-03-25T22:03:25.568352
MEAN_MOTION    = 15.50619100
ECCENTRICITY   = .0002819
INCLINATION    = 43.0028
RA_OF_ASC_NODE = 318.3177
ARG_OF_PERICENTER = 268.5077
MEAN_ANOMALY   = 91.5460

EPHEMERIS_TYPE = 0
CLASSIFICATION_TYPE = U
NORAD_CAT_ID   = 67992
ELEMENT_SET_NO = 999
REV_AT_EPOCH   = 417
BSTAR          = .95923E-3
MEAN_MOTION_DOT = .56424E-3
MEAN_MOTION_DDOT = 0

CCSDS_OMM_VERS = 2.0
CREATION_DATE  = 
ORIGINATOR     = 

OBJECT_NAME    = STARLINK-36975
OBJECT_ID      = 2026-039H
CENTER_NAME    = EARTH
REF_FRAME      = TEME
TIME_SYSTEM    = UTC
MEAN_ELEMENT_THEORY = SGP/SGP4

EPOCH          = 2026-03-25T21:53:18.769920
MEAN_MOTION    = 15.50664793
ECCENTRICITY   = .0001815
INCLINATION    = 42.9979
RA_OF_ASC_NODE = 318.2609
ARG_OF_PERICENTER = 234.6735
MEAN_ANOMALY   = 125.3955

EPHEMERIS_TYPE = 0
CLASSIFICATION_TYPE = U
NORAD_CAT_ID   = 67993
ELEMENT_SET_NO = 999
REV_AT_EPOCH   = 417
BSTAR          = .14464E-2
MEAN_MOTION_DOT = .85708E-3
MEAN_MOTION_DDOT = 0

CCSDS_OMM_VERS = 2.0
CREATION_DATE  = 
ORIGINATOR     = 

OBJECT_NAME    = STARLINK-36993
OBJECT_ID      = 2026-039J
CENTER_NAME    = EARTH
REF_FRAME      = TEME
TIME_SYSTEM    = UTC
MEAN_ELEMENT_THEORY = SGP/SGP4

EPOCH          = 2026-03-26T06:00:02.000160
MEAN_MOTION    = 15.42839080
ECCENTRICITY   = .00018081
INCLINATION    = 42.9994
RA_OF_ASC_NODE = 315.6419
ARG_OF_PERICENTER = 253.6528
MEAN_ANOMALY   = 96.2962

EPHEMERIS_TYPE = 0
CLASSIFICATION_TYPE = U
NORAD_CAT_ID   = 67994
ELEMENT_SET_NO = 999
REV_AT_EPOCH   = 553
BSTAR          = -.46813734E-1
MEAN_MOTION_DOT = -.1885137E-1
MEAN_MOTION_DDOT = 0

CCSDS_OMM_VERS = 2.0
CREATION_DATE  = 
ORIGINATOR     = 

OBJECT_NAME    = STARLINK-36968
OBJECT_ID      = 2026-039K
CENTER_NAME    = EARTH
REF_FRAME      = TEME
TIME_SYSTEM    = UTC
MEAN_ELEMENT_THEORY = SGP/SGP4

EPOCH          = 2026-03-25T22:14:12.985152
MEAN_MOTION    = 15.50643888
ECCENTRICITY   = .0002851
INCLINATION    = 42.9996
RA_OF_ASC_NODE = 318.3761
ARG_OF_PERICENTER = 272.5165
MEAN_ANOMALY   = 87.5369

EPHEMERIS_TYPE = 0
CLASSIFICATION_TYPE = U
NORAD_CAT_ID   = 67995
ELEMENT_SET_NO = 999
REV_AT_EPOCH   = 417
BSTAR          = .14508E-2
MEAN_MOTION_DOT = .85912E-3
MEAN_MOTION_DDOT = 0

CCSDS_OMM_VERS = 2.0
CREATION_DATE  = 
ORIGINATOR     = 

OBJECT_NAME    = STARLINK-36979
OBJECT_ID      = 2026-039L
CENTER_NAME    = EARTH
REF_FRAME      = TEME
TIME_SYSTEM    = UTC
MEAN_ELEMENT_THEORY = SGP/SGP4

EPOCH          = 2026-03-26T06:00:02.000160
MEAN_MOTION    = 15.41584594
ECCENTRICITY   = .00018865
INCLINATION    = 43.0002
RA_OF_ASC_NODE = 315.5474
ARG_OF_PERICENTER = 262.0000
MEAN_ANOMALY   = 126.1050

EPHEMERIS_TYPE = 0
CLASSIFICATION_TYPE = U
NORAD_CAT_ID   = 67996
ELEMENT_SET_NO = 999
REV_AT_EPOCH   = 553
BSTAR          = -.48740098E-1
MEAN_MOTION_DOT = -.1881583E-1
MEAN_MOTION_DDOT = 0

CCSDS_OMM_VERS = 2.0
CREATION_DATE  = 
ORIGINATOR     = 

OBJECT_NAME    = STARLINK-36994
OBJECT_ID      = 2026-039M
CENTER_NAME    = EARTH
REF_FRAME      = TEME
TIME_SYSTEM    = UTC
MEAN_ELEMENT_THEORY = SGP/SGP4

EPOCH          = 2026-03-25T22:38:00.391776
MEAN_MOTION    = 15.50613442
ECCENTRICITY   = .0001833
INCLINATION    = 42.9962
RA_OF_ASC_NODE = 317.6175
ARG_OF_PERICENTER = 248.4468
MEAN_ANOMALY   = 111.6197

EPHEMERIS_TYPE = 0
CLASSIFICATION_TYPE = U
NORAD_CAT_ID   = 67997
ELEMENT_SET_NO = 999
REV_AT_EPOCH   = 418
BSTAR          = .10211E-2
MEAN_MOTION_DOT = .60096E-3
MEAN_MOTION_DDOT = 0

CCSDS_OMM_VERS = 2.0
CREATION_DATE  = 
ORIGINATOR     = 

OBJECT_NAME    = STARLINK-36988
OBJECT_ID      = 2026-039N
CENTER_NAME    = EARTH
REF_FRAME      = TEME
TIME_SYSTEM    = UTC
MEAN_ELEMENT_THEORY = SGP/SGP4

EPOCH          = 2026-03-25T22:31:53.412096
MEAN_MOTION    = 15.50610729
ECCENTRICITY   = .0001397
INCLINATION    = 42.9972
RA_OF_ASC_NODE = 317.5839
ARG_OF_PERICENTER = 275.1316
MEAN_ANOMALY   = 84.9384

EPHEMERIS_TYPE = 0
CLASSIFICATION_TYPE = U
NORAD_CAT_ID   = 67998
ELEMENT_SET_NO = 999
REV_AT_EPOCH   = 418
BSTAR          = .1018E-2
MEAN_MOTION_DOT = .59908E-3
MEAN_MOTION_DDOT = 0

CCSDS_OMM_VERS = 2.0
CREATION_DATE  = 
ORIGINATOR     = 

OBJECT_NAME    = STARLINK-36926
OBJECT_ID      = 2026-039P
CENTER_NAME    = EARTH
REF_FRAME      = TEME
TIME_SYSTEM    = UTC
MEAN_ELEMENT_THEORY = SGP/SGP4

EPOCH          = 2026-03-25T22:35:36.259296
MEAN_MOTION    = 15.50588499
ECCENTRICITY   = .0001496
INCLINATION    = 42.9992
RA_OF_ASC_NODE = 317.6039
ARG_OF_PERICENTER = 256.4207
MEAN_ANOMALY   = 103.6487

EPHEMERIS_TYPE = 0
CLASSIFICATION_TYPE = U
NORAD_CAT_ID   = 67999
ELEMENT_SET_NO = 999
REV_AT_EPOCH   = 418
BSTAR          = .14239E-2
MEAN_MOTION_DOT = .84123E-3
MEAN_MOTION_DDOT = 0

CCSDS_OMM_VERS = 2.0
CREATION_DATE  = 
ORIGINATOR     = 

OBJECT_NAME    = STARLINK-36931
OBJECT_ID      = 2026-039Q
CENTER_NAME    = EARTH
REF_FRAME      = TEME
TIME_SYSTEM    = UTC
MEAN_ELEMENT_THEORY = SGP/SGP4

EPOCH          = 2026-03-26T01:11:44.464416
MEAN_MOTION    = 15.50588778
ECCENTRICITY   = .00020352
INCLINATION    = 43.0000
RA_OF_ASC_NODE = 316.6894
ARG_OF_PERICENTER = 274.8338
MEAN_ANOMALY   = 85.2290

EPHEMERIS_TYPE = 0
CLASSIFICATION_TYPE = U
NORAD_CAT_ID   = 68000
ELEMENT_SET_NO = 999
REV_AT_EPOCH   = 420
BSTAR          = .99937676E-3
MEAN_MOTION_DOT = .5875E-3
MEAN_MOTION_DDOT = 0

CCSDS_OMM_VERS = 2.0
CREATION_DATE  = 
ORIGINATOR     = 

OBJECT_NAME    = STARLINK-36903
OBJECT_ID      = 2026-039R
CENTER_NAME    = EARTH
REF_FRAME      = TEME
TIME_SYSTEM    = UTC
MEAN_ELEMENT_THEORY = SGP/SGP4

EPOCH          = 2026-03-26T06:00:02.000160
MEAN_MOTION    = 15.37237172
ECCENTRICITY   = .00010114
INCLINATION    = 43.0001
RA_OF_ASC_NODE = 315.9753
ARG_OF_PERICENTER = 275.8989
MEAN_ANOMALY   = 297.7743

EPHEMERIS_TYPE = 0
CLASSIFICATION_TYPE = U
NORAD_CAT_ID   = 68001
ELEMENT_SET_NO = 999
REV_AT_EPOCH   = 553
BSTAR          = -.56118918E-1
MEAN_MOTION_DOT = -.1875489E-1
MEAN_MOTION_DDOT = 0

CCSDS_OMM_VERS = 2.0
CREATION_DATE  = 
ORIGINATOR     = 

OBJECT_NAME    = STARLINK-36898
OBJECT_ID      = 2026-039S
CENTER_NAME    = EARTH
REF_FRAME      = TEME
TIME_SYSTEM    = UTC
MEAN_ELEMENT_THEORY = SGP/SGP4

EPOCH          = 2026-03-26T06:00:02.000160
MEAN_MOTION    = 15.35887417
ECCENTRICITY   = .00016035
INCLINATION    = 42.9998
RA_OF_ASC_NODE = 315.7919
ARG_OF_PERICENTER = 255.4026
MEAN_ANOMALY   = 31.2171

EPHEMERIS_TYPE = 0
CLASSIFICATION_TYPE = U
NORAD_CAT_ID   = 68002
ELEMENT_SET_NO = 999
REV_AT_EPOCH   = 553
BSTAR          = -.68104716E-1
MEAN_MOTION_DOT = -.2181335E-1
MEAN_MOTION_DDOT = 0

CCSDS_OMM_VERS = 2.0
CREATION_DATE  = 
ORIGINATOR     = 

OBJECT_NAME    = STARLINK-36862
OBJECT_ID      = 2026-039T
CENTER_NAME    = EARTH
REF_FRAME      = TEME
TIME_SYSTEM    = UTC
MEAN_ELEMENT_THEORY = SGP/SGP4

EPOCH          = 2026-03-26T06:00:02.000160
MEAN_MOTION    = 15.34503209
ECCENTRICITY   = .00018416
INCLINATION    = 43.0000
RA_OF_ASC_NODE = 315.9597
ARG_OF_PERICENTER = 255.1571
MEAN_ANOMALY   = 323.5564

EPHEMERIS_TYPE = 0
CLASSIFICATION_TYPE = U
NORAD_CAT_ID   = 68003
ELEMENT_SET_NO = 999
REV_AT_EPOCH   = 553
BSTAR          = -.72730966E-1
MEAN_MOTION_DOT = -.2223007E-1
MEAN_MOTION_DDOT = 0

